IRIDIUM 39              
1 25042U 97069D   25108.95423005  .00001375  00000+0  35573-3 0  9999
2 25042  86.3922 236.5084 0019335 140.1084 220.1545 14.49122607440645
IRIDIUM 38              
1 25043U 97069E   25108.95564867  .00000885  00000+0  28610-3 0  9991
2 25043  86.3925 258.0712 0000689  29.4613 330.6623 14.38047891437701
IRIDIUM 42              
1 25077U 97077A   25108.95886740  .00000826  00000+0  27601-3 0  9998
2 25077  86.3919 264.1715 0001580  76.6583 283.4790 14.36288433432693
IRIDIUM 44              
1 25078U 97077B   25109.42054371  .00000866  00000+0  26777-3 0  9996
2 25078  86.3949 246.0444 0001782 150.8244 209.3055 14.40179674435277
IRIDIUM 45              
1 25104U 97082A   25108.98381194  .00020860  00000+0  79411-3 0  9997
2 25104  86.3570  76.5861 0121796 191.4473 168.3998 15.19849060443290
IRIDIUM 24              
1 25105U 97082B   25109.46900215  .00000926  00000+0  27633-3 0  9993
2 25105  86.3857 105.2130 0009053 273.3109  86.7056 14.42022515435006
IRIDIUM 51              
1 25262U 98018A   25108.93767858  .00039530  00000+0  99101-3 0  9994
2 25262  86.3824  85.0686 0099367 116.3830 244.7664 15.34836025438149
IRIDIUM 57              
1 25273U 98019B   25108.72797839  .00000554  00000+0  18456-3 0  9994
2 25273  86.4012 170.1622 0002200  93.5560 266.5888 14.35845341416465
